{"fetched_at":"2026-07-08T17:59:28.433Z","source":"https://celestrak.org/NORAD/elements/gp.php?GROUP=spire&FORMAT=JSON","constellation":"spire","records":[{"OBJECT_NAME":"LEMUR-2-VALHALLA","OBJECT_ID":"2024-022B","EPOCH":"2026-07-08T12:25:21.736416","CLASSIFICATION_TYPE":"U","MEAN_MOTION":15.40344373,"ECCENTRICITY":0.0009908,"INCLINATION":97.4095,"RA_OF_ASC_NODE":39.7731,"ARG_OF_PERICENTER":46.0433,"MEAN_ANOMALY":314.1629,"EPHEMERIS_TYPE":0,"NORAD_CAT_ID":58900,"ELEMENT_SET_NO":999,"REV_AT_EPOCH":13555,"BSTAR":0.0003017,"MEAN_MOTION_DOT":0.00012113,"MEAN_MOTION_DDOT":0},{"OBJECT_NAME":"LEMUR-2-CAEL","OBJECT_ID":"2024-022E","EPOCH":"2026-07-08T07:32:42.895104","CLASSIFICATION_TYPE":"U","MEAN_MOTION":15.41690753,"ECCENTRICITY":0.0007903,"INCLINATION":97.4078,"RA_OF_ASC_NODE":40.5408,"ARG_OF_PERICENTER":33.0363,"MEAN_ANOMALY":327.1376,"EPHEMERIS_TYPE":0,"NORAD_CAT_ID":58903,"ELEMENT_SET_NO":999,"REV_AT_EPOCH":13559,"BSTAR":0.00028531,"MEAN_MOTION_DOT":0.00011966,"MEAN_MOTION_DDOT":0},{"OBJECT_NAME":"LEMUR-2-JOHNNYTRUONG","OBJECT_ID":"2024-043BA","EPOCH":"2026-07-08T08:45:16.814016","CLASSIFICATION_TYPE":"U","MEAN_MOTION":15.62147729,"ECCENTRICITY":0.0004301,"INCLINATION":97.539,"RA_OF_ASC_NODE":342.407,"ARG_OF_PERICENTER":112.615,"MEAN_ANOMALY":247.5563,"EPHEMERIS_TYPE":0,"NORAD_CAT_ID":59146,"ELEMENT_SET_NO":999,"REV_AT_EPOCH":13134,"BSTAR":0.00033735,"MEAN_MOTION_DOT":0.00029538,"MEAN_MOTION_DDOT":0},{"OBJECT_NAME":"LEMUR-2-TOMATOKECHUP","OBJECT_ID":"2024-149D","EPOCH":"2026-07-07T18:07:55.111008","CLASSIFICATION_TYPE":"U","MEAN_MOTION":15.36476705,"ECCENTRICITY":0.0002964,"INCLINATION":97.3789,"RA_OF_ASC_NODE":270.8599,"ARG_OF_PERICENTER":136.014,"MEAN_ANOMALY":224.1341,"EPHEMERIS_TYPE":0,"NORAD_CAT_ID":60471,"ELEMENT_SET_NO":999,"REV_AT_EPOCH":10532,"BSTAR":0.00020696,"MEAN_MOTION_DOT":0.00007285,"MEAN_MOTION_DDOT":0},{"OBJECT_NAME":"LEMUR-2-STELLA","OBJECT_ID":"2024-149BT","EPOCH":"2026-07-08T04:37:18.317568","CLASSIFICATION_TYPE":"U","MEAN_MOTION":15.12271376,"ECCENTRICITY":0.000106,"INCLINATION":97.6726,"RA_OF_ASC_NODE":271.7449,"ARG_OF_PERICENTER":111.1796,"MEAN_ANOMALY":248.9548,"EPHEMERIS_TYPE":0,"NORAD_CAT_ID":60533,"ELEMENT_SET_NO":999,"REV_AT_EPOCH":10367,"BSTAR":0.00039238,"MEAN_MOTION_DOT":0.00006723,"MEAN_MOTION_DDOT":0},{"OBJECT_NAME":"LEMUR-2-MARHISYAM","OBJECT_ID":"2024-149BW","EPOCH":"2026-07-08T12:16:52.550112","CLASSIFICATION_TYPE":"U","MEAN_MOTION":15.11690447,"ECCENTRICITY":0.0002784,"INCLINATION":97.6873,"RA_OF_ASC_NODE":272.536,"ARG_OF_PERICENTER":79.6906,"MEAN_ANOMALY":280.4637,"EPHEMERIS_TYPE":0,"NORAD_CAT_ID":60536,"ELEMENT_SET_NO":999,"REV_AT_EPOCH":10370,"BSTAR":0.00046939,"MEAN_MOTION_DOT":0.00007928,"MEAN_MOTION_DDOT":0},{"OBJECT_NAME":"LEMUR-2-AHMED-ASRAR","OBJECT_ID":"2024-149DN","EPOCH":"2026-07-08T01:29:22.545600","CLASSIFICATION_TYPE":"U","MEAN_MOTION":15.13199165,"ECCENTRICITY":0.0000633,"INCLINATION":97.6996,"RA_OF_ASC_NODE":274.2584,"ARG_OF_PERICENTER":252.4432,"MEAN_ANOMALY":107.6729,"EPHEMERIS_TYPE":0,"NORAD_CAT_ID":60576,"ELEMENT_SET_NO":999,"REV_AT_EPOCH":10372,"BSTAR":0.00040129,"MEAN_MOTION_DOT":0.00007058,"MEAN_MOTION_DDOT":0},{"OBJECT_NAME":"LEMUR-2-LLOYD","OBJECT_ID":"2024-149DP","EPOCH":"2026-07-07T11:02:38.252544","CLASSIFICATION_TYPE":"U","MEAN_MOTION":15.09650711,"ECCENTRICITY":0.00049101,"INCLINATION":97.6734,"RA_OF_ASC_NODE":269.6046,"ARG_OF_PERICENTER":90.2019,"MEAN_ANOMALY":269.9772,"EPHEMERIS_TYPE":0,"NORAD_CAT_ID":60577,"ELEMENT_SET_NO":999,"REV_AT_EPOCH":10345,"BSTAR":0.00040278112,"MEAN_MOTION_DOT":0.0000642,"MEAN_MOTION_DDOT":0},{"OBJECT_NAME":"LEMUR-2-SQUIRRELCOMM","OBJECT_ID":"2024-149DQ","EPOCH":"2026-07-08T00:49:41.985408","CLASSIFICATION_TYPE":"U","MEAN_MOTION":15.07397331,"ECCENTRICITY":0.0004747,"INCLINATION":97.6707,"RA_OF_ASC_NODE":269.8822,"ARG_OF_PERICENTER":354.4134,"MEAN_ANOMALY":5.7039,"EPHEMERIS_TYPE":0,"NORAD_CAT_ID":60578,"ELEMENT_SET_NO":999,"REV_AT_EPOCH":10354,"BSTAR":0.0002474,"MEAN_MOTION_DOT":0.00003681,"MEAN_MOTION_DDOT":0},{"OBJECT_NAME":"LEMUR-2-SIERRINI","OBJECT_ID":"2024-149DR","EPOCH":"2026-07-08T11:21:25.250688","CLASSIFICATION_TYPE":"U","MEAN_MOTION":15.11415684,"ECCENTRICITY":0.0006539,"INCLINATION":97.6833,"RA_OF_ASC_NODE":272.1651,"ARG_OF_PERICENTER":108.1566,"MEAN_ANOMALY":252.0376,"EPHEMERIS_TYPE":0,"NORAD_CAT_ID":60579,"ELEMENT_SET_NO":999,"REV_AT_EPOCH":10367,"BSTAR":0.00036517,"MEAN_MOTION_DOT":0.00006107,"MEAN_MOTION_DDOT":0},{"OBJECT_NAME":"LEMUR-2-WILSON","OBJECT_ID":"2025-009CP","EPOCH":"2026-07-08T10:37:57.505152","CLASSIFICATION_TYPE":"U","MEAN_MOTION":14.95263092,"ECCENTRICITY":0.0002513,"INCLINATION":97.7023,"RA_OF_ASC_NODE":267.535,"ARG_OF_PERICENTER":1.2947,"MEAN_ANOMALY":358.828,"EPHEMERIS_TYPE":0,"NORAD_CAT_ID":62694,"ELEMENT_SET_NO":999,"REV_AT_EPOCH":8053,"BSTAR":0.0001629,"MEAN_MOTION_DOT":0.00001736,"MEAN_MOTION_DDOT":0},{"OBJECT_NAME":"LEMUR-2-STAR-FOX","OBJECT_ID":"2025-009CR","EPOCH":"2026-07-08T11:14:40.586784","CLASSIFICATION_TYPE":"U","MEAN_MOTION":15.02789253,"ECCENTRICITY":0.0003181,"INCLINATION":97.6924,"RA_OF_ASC_NODE":270.9258,"ARG_OF_PERICENTER":65.7549,"MEAN_ANOMALY":294.4008,"EPHEMERIS_TYPE":0,"NORAD_CAT_ID":62696,"ELEMENT_SET_NO":999,"REV_AT_EPOCH":8075,"BSTAR":0.00026967,"MEAN_MOTION_DOT":0.00003548,"MEAN_MOTION_DDOT":0},{"OBJECT_NAME":"LEMUR-2-ARIANNA","OBJECT_ID":"2025-009CU","EPOCH":"2026-07-08T11:12:28.280736","CLASSIFICATION_TYPE":"U","MEAN_MOTION":15.02788966,"ECCENTRICITY":0.0003507,"INCLINATION":97.6862,"RA_OF_ASC_NODE":270.6819,"ARG_OF_PERICENTER":71.2529,"MEAN_ANOMALY":288.9076,"EPHEMERIS_TYPE":0,"NORAD_CAT_ID":62699,"ELEMENT_SET_NO":999,"REV_AT_EPOCH":8075,"BSTAR":0.00028415,"MEAN_MOTION_DOT":0.00003741,"MEAN_MOTION_DDOT":0},{"OBJECT_NAME":"LEMUR-2-ALISIA","OBJECT_ID":"2025-009DB","EPOCH":"2026-07-08T12:10:37.949952","CLASSIFICATION_TYPE":"U","MEAN_MOTION":15.03106706,"ECCENTRICITY":0.0003544,"INCLINATION":97.6958,"RA_OF_ASC_NODE":271.5331,"ARG_OF_PERICENTER":150.6602,"MEAN_ANOMALY":209.4822,"EPHEMERIS_TYPE":0,"NORAD_CAT_ID":62706,"ELEMENT_SET_NO":999,"REV_AT_EPOCH":10336,"BSTAR":0.00044512,"MEAN_MOTION_DOT":0.00005947,"MEAN_MOTION_DDOT":0},{"OBJECT_NAME":"LEMUR-2-ROUNDTRIPPER","OBJECT_ID":"2025-009DG","EPOCH":"2026-07-08T04:25:52.603968","CLASSIFICATION_TYPE":"U","MEAN_MOTION":15.04150285,"ECCENTRICITY":0.0004413,"INCLINATION":97.7226,"RA_OF_ASC_NODE":271.8364,"ARG_OF_PERICENTER":80.0579,"MEAN_ANOMALY":280.1144,"EPHEMERIS_TYPE":0,"NORAD_CAT_ID":62711,"ELEMENT_SET_NO":999,"REV_AT_EPOCH":8078,"BSTAR":0.00041779,"MEAN_MOTION_DOT":0.00005736,"MEAN_MOTION_DDOT":0},{"OBJECT_NAME":"LEMUR-2-MYNAMEISJEFF","OBJECT_ID":"2025-009DH","EPOCH":"2026-07-08T12:22:37.068384","CLASSIFICATION_TYPE":"U","MEAN_MOTION":15.04147613,"ECCENTRICITY":0.0003596,"INCLINATION":97.7283,"RA_OF_ASC_NODE":272.5606,"ARG_OF_PERICENTER":113.0683,"MEAN_ANOMALY":247.0922,"EPHEMERIS_TYPE":0,"NORAD_CAT_ID":62712,"ELEMENT_SET_NO":999,"REV_AT_EPOCH":8083,"BSTAR":0.00047393,"MEAN_MOTION_DOT":0.00006515,"MEAN_MOTION_DDOT":0}]}
